2026-023D               
1 67677U 26023D   26048.54625104  .00012806  00000+0  55344-3 0  9993
2 67677  96.6467 123.8279 0019192 197.1017 162.9577 15.22414599  1788
2026-023E               
1 67678U 26023E   26048.54557343  .00015065  00000+0  64831-3 0  9994
2 67678  96.6360 123.8283 0019036 196.4359 163.6265 15.22526472  1780
2026-023F               
1 67679U 26023F   26048.54449962  .00018460  00000+0  78947-3 0  9997
2 67679  96.6367 126.3252 0021002 191.0579 169.0201 15.22663197  1778
2026-023G               
1 67680U 26023G   26048.54477847  .00014679  00000+0  62868-3 0  9995
2 67680  96.6296 126.3223 0022574 187.6431 172.4467 15.22625617  1779
2026-023H               
1 67681U 26023H   26047.69023008  .00000971  00000+0  44030-4 0  9999
2 67681  96.6443 125.5685 0022459 190.0290 170.0504 15.22597278  1643
2026-023J               
1 67682U 26023J   26048.54428218  .00015009  00000+0  64143-3 0  9991
2 67682  96.6396 126.3371 0022794 183.8188 176.2880 15.22690609  1771
ISS OBJECT XZ           
1 67683U 98067XZ  26048.49549627  .00039734  00000+0  69500-3 0  9994
2 67683  51.6309 172.0578 0010439 120.5199 239.6822 15.50177307  1650
GXIBA-1                 
1 67684U 98067YA  26048.36147841  .00076510  00000+0  12774-2 0  9996
2 67684  51.6312 172.6641 0011997 112.8351 247.3906 15.51181668  1639
CORAL                   
1 67685U 98067YB  26048.36558399  .00043084  00000+0  74765-3 0  9990
2 67685  51.6312 172.6909 0012327 115.3713 244.8554 15.50340482  1636
ISS OBJECT YC           
1 67686U 98067YC  26048.36466507  .00054294  00000+0  93371-3 0  9999
2 67686  51.6315 172.6861 0007790  87.7073 272.4808 15.50543709  1632
LEOPARD                 
1 67687U 98067YD  26048.49491505  .00043637  00000+0  76005-3 0  9994
2 67687  51.6314 172.0549 0007844  91.1853 269.0035 15.50279822  1573
ISS OBJECT YE           
1 67688U 98067YE  26048.49392385  .00049101  00000+0  84802-3 0  9997
2 67688  51.6314 172.0482 0007738  89.8770 270.3106 15.50466901  1574
