CCSDS_OMM_VERS = 2.0
CREATION_DATE  = 
ORIGINATOR     = 

OBJECT_NAME    = 2026-023D
OBJECT_ID      = 2026-023D
CENTER_NAME    = EARTH
REF_FRAME      = TEME
TIME_SYSTEM    = UTC
MEAN_ELEMENT_THEORY = SGP/SGP4

EPOCH          = 2026-02-17T13:06:36.089856
MEAN_MOTION    = 15.22414599
ECCENTRICITY   = .0019192
INCLINATION    = 96.6467
RA_OF_ASC_NODE = 123.8279
ARG_OF_PERICENTER = 197.1017
MEAN_ANOMALY   = 162.9577

EPHEMERIS_TYPE = 0
CLASSIFICATION_TYPE = U
NORAD_CAT_ID   = 67677
ELEMENT_SET_NO = 999
REV_AT_EPOCH   = 178
BSTAR          = .55344E-3
MEAN_MOTION_DOT = .12806E-3
MEAN_MOTION_DDOT = 0

CCSDS_OMM_VERS = 2.0
CREATION_DATE  = 
ORIGINATOR     = 

OBJECT_NAME    = 2026-023E
OBJECT_ID      = 2026-023E
CENTER_NAME    = EARTH
REF_FRAME      = TEME
TIME_SYSTEM    = UTC
MEAN_ELEMENT_THEORY = SGP/SGP4

EPOCH          = 2026-02-17T13:05:37.544352
MEAN_MOTION    = 15.22526472
ECCENTRICITY   = .0019036
INCLINATION    = 96.6360
RA_OF_ASC_NODE = 123.8283
ARG_OF_PERICENTER = 196.4359
MEAN_ANOMALY   = 163.6265

EPHEMERIS_TYPE = 0
CLASSIFICATION_TYPE = U
NORAD_CAT_ID   = 67678
ELEMENT_SET_NO = 999
REV_AT_EPOCH   = 178
BSTAR          = .64831E-3
MEAN_MOTION_DOT = .15065E-3
MEAN_MOTION_DDOT = 0

CCSDS_OMM_VERS = 2.0
CREATION_DATE  = 
ORIGINATOR     = 

OBJECT_NAME    = 2026-023F
OBJECT_ID      = 2026-023F
CENTER_NAME    = EARTH
REF_FRAME      = TEME
TIME_SYSTEM    = UTC
MEAN_ELEMENT_THEORY = SGP/SGP4

EPOCH          = 2026-02-17T13:04:04.767168
MEAN_MOTION    = 15.22663197
ECCENTRICITY   = .0021002
INCLINATION    = 96.6367
RA_OF_ASC_NODE = 126.3252
ARG_OF_PERICENTER = 191.0579
MEAN_ANOMALY   = 169.0201

EPHEMERIS_TYPE = 0
CLASSIFICATION_TYPE = U
NORAD_CAT_ID   = 67679
ELEMENT_SET_NO = 999
REV_AT_EPOCH   = 177
BSTAR          = .78947E-3
MEAN_MOTION_DOT = .1846E-3
MEAN_MOTION_DDOT = 0

CCSDS_OMM_VERS = 2.0
CREATION_DATE  = 
ORIGINATOR     = 

OBJECT_NAME    = 2026-023G
OBJECT_ID      = 2026-023G
CENTER_NAME    = EARTH
REF_FRAME      = TEME
TIME_SYSTEM    = UTC
MEAN_ELEMENT_THEORY = SGP/SGP4

EPOCH          = 2026-02-17T13:04:28.859808
MEAN_MOTION    = 15.22625617
ECCENTRICITY   = .0022574
INCLINATION    = 96.6296
RA_OF_ASC_NODE = 126.3223
ARG_OF_PERICENTER = 187.6431
MEAN_ANOMALY   = 172.4467

EPHEMERIS_TYPE = 0
CLASSIFICATION_TYPE = U
NORAD_CAT_ID   = 67680
ELEMENT_SET_NO = 999
REV_AT_EPOCH   = 177
BSTAR          = .62868E-3
MEAN_MOTION_DOT = .14679E-3
MEAN_MOTION_DDOT = 0

CCSDS_OMM_VERS = 2.0
CREATION_DATE  = 
ORIGINATOR     = 

OBJECT_NAME    = 2026-023H
OBJECT_ID      = 2026-023H
CENTER_NAME    = EARTH
REF_FRAME      = TEME
TIME_SYSTEM    = UTC
MEAN_ELEMENT_THEORY = SGP/SGP4

EPOCH          = 2026-02-16T16:33:55.878912
MEAN_MOTION    = 15.22597278
ECCENTRICITY   = .00224596
INCLINATION    = 96.6443
RA_OF_ASC_NODE = 125.5685
ARG_OF_PERICENTER = 190.0290
MEAN_ANOMALY   = 170.0504

EPHEMERIS_TYPE = 0
CLASSIFICATION_TYPE = U
NORAD_CAT_ID   = 67681
ELEMENT_SET_NO = 999
REV_AT_EPOCH   = 164
BSTAR          = .4403015E-4
MEAN_MOTION_DOT = .971E-5
MEAN_MOTION_DDOT = 0

CCSDS_OMM_VERS = 2.0
CREATION_DATE  = 
ORIGINATOR     = 

OBJECT_NAME    = 2026-023J
OBJECT_ID      = 2026-023J
CENTER_NAME    = EARTH
REF_FRAME      = TEME
TIME_SYSTEM    = UTC
MEAN_ELEMENT_THEORY = SGP/SGP4

EPOCH          = 2026-02-17T13:03:45.980352
MEAN_MOTION    = 15.22690609
ECCENTRICITY   = .0022794
INCLINATION    = 96.6396
RA_OF_ASC_NODE = 126.3371
ARG_OF_PERICENTER = 183.8188
MEAN_ANOMALY   = 176.2880

EPHEMERIS_TYPE = 0
CLASSIFICATION_TYPE = U
NORAD_CAT_ID   = 67682
ELEMENT_SET_NO = 999
REV_AT_EPOCH   = 177
BSTAR          = .64143E-3
MEAN_MOTION_DOT = .15009E-3
MEAN_MOTION_DDOT = 0

CCSDS_OMM_VERS = 2.0
CREATION_DATE  = 
ORIGINATOR     = 

OBJECT_NAME    = ISS OBJECT XZ
OBJECT_ID      = 1998-067XZ
CENTER_NAME    = EARTH
REF_FRAME      = TEME
TIME_SYSTEM    = UTC
MEAN_ELEMENT_THEORY = SGP/SGP4

EPOCH          = 2026-02-17T11:53:30.877728
MEAN_MOTION    = 15.50177307
ECCENTRICITY   = .0010439
INCLINATION    = 51.6309
RA_OF_ASC_NODE = 172.0578
ARG_OF_PERICENTER = 120.5199
MEAN_ANOMALY   = 239.6822

EPHEMERIS_TYPE = 0
CLASSIFICATION_TYPE = U
NORAD_CAT_ID   = 67683
ELEMENT_SET_NO = 999
REV_AT_EPOCH   = 165
BSTAR          = .695E-3
MEAN_MOTION_DOT = .39734E-3
MEAN_MOTION_DDOT = 0

CCSDS_OMM_VERS = 2.0
CREATION_DATE  = 
ORIGINATOR     = 

OBJECT_NAME    = GXIBA-1
OBJECT_ID      = 1998-067YA
CENTER_NAME    = EARTH
REF_FRAME      = TEME
TIME_SYSTEM    = UTC
MEAN_ELEMENT_THEORY = SGP/SGP4

EPOCH          = 2026-02-17T08:40:31.734624
MEAN_MOTION    = 15.51181668
ECCENTRICITY   = .0011997
INCLINATION    = 51.6312
RA_OF_ASC_NODE = 172.6641
ARG_OF_PERICENTER = 112.8351
MEAN_ANOMALY   = 247.3906

EPHEMERIS_TYPE = 0
CLASSIFICATION_TYPE = U
NORAD_CAT_ID   = 67684
ELEMENT_SET_NO = 999
REV_AT_EPOCH   = 163
BSTAR          = .12774E-2
MEAN_MOTION_DOT = .7651E-3
MEAN_MOTION_DDOT = 0

CCSDS_OMM_VERS = 2.0
CREATION_DATE  = 
ORIGINATOR     = 

OBJECT_NAME    = CORAL
OBJECT_ID      = 1998-067YB
CENTER_NAME    = EARTH
REF_FRAME      = TEME
TIME_SYSTEM    = UTC
MEAN_ELEMENT_THEORY = SGP/SGP4

EPOCH          = 2026-02-17T08:46:26.456736
MEAN_MOTION    = 15.50340482
ECCENTRICITY   = .0012327
INCLINATION    = 51.6312
RA_OF_ASC_NODE = 172.6909
ARG_OF_PERICENTER = 115.3713
MEAN_ANOMALY   = 244.8554

EPHEMERIS_TYPE = 0
CLASSIFICATION_TYPE = U
NORAD_CAT_ID   = 67685
ELEMENT_SET_NO = 999
REV_AT_EPOCH   = 163
BSTAR          = .74765E-3
MEAN_MOTION_DOT = .43084E-3
MEAN_MOTION_DDOT = 0

CCSDS_OMM_VERS = 2.0
CREATION_DATE  = 
ORIGINATOR     = 

OBJECT_NAME    = ISS OBJECT YC
OBJECT_ID      = 1998-067YC
CENTER_NAME    = EARTH
REF_FRAME      = TEME
TIME_SYSTEM    = UTC
MEAN_ELEMENT_THEORY = SGP/SGP4

EPOCH          = 2026-02-17T08:45:07.062048
MEAN_MOTION    = 15.50543709
ECCENTRICITY   = .000779
INCLINATION    = 51.6315
RA_OF_ASC_NODE = 172.6861
ARG_OF_PERICENTER = 87.7073
MEAN_ANOMALY   = 272.4808

EPHEMERIS_TYPE = 0
CLASSIFICATION_TYPE = U
NORAD_CAT_ID   = 67686
ELEMENT_SET_NO = 999
REV_AT_EPOCH   = 163
BSTAR          = .93371E-3
MEAN_MOTION_DOT = .54294E-3
MEAN_MOTION_DDOT = 0

CCSDS_OMM_VERS = 2.0
CREATION_DATE  = 
ORIGINATOR     = 

OBJECT_NAME    = LEOPARD
OBJECT_ID      = 1998-067YD
CENTER_NAME    = EARTH
REF_FRAME      = TEME
TIME_SYSTEM    = UTC
MEAN_ELEMENT_THEORY = SGP/SGP4

EPOCH          = 2026-02-17T11:52:40.660320
MEAN_MOTION    = 15.50279822
ECCENTRICITY   = .0007844
INCLINATION    = 51.6314
RA_OF_ASC_NODE = 172.0549
ARG_OF_PERICENTER = 91.1853
MEAN_ANOMALY   = 269.0035

EPHEMERIS_TYPE = 0
CLASSIFICATION_TYPE = U
NORAD_CAT_ID   = 67687
ELEMENT_SET_NO = 999
REV_AT_EPOCH   = 157
BSTAR          = .76005E-3
MEAN_MOTION_DOT = .43637E-3
MEAN_MOTION_DDOT = 0

CCSDS_OMM_VERS = 2.0
CREATION_DATE  = 
ORIGINATOR     = 

OBJECT_NAME    = ISS OBJECT YE
OBJECT_ID      = 1998-067YE
CENTER_NAME    = EARTH
REF_FRAME      = TEME
TIME_SYSTEM    = UTC
MEAN_ELEMENT_THEORY = SGP/SGP4

EPOCH          = 2026-02-17T11:51:15.020640
MEAN_MOTION    = 15.50466901
ECCENTRICITY   = .0007738
INCLINATION    = 51.6314
RA_OF_ASC_NODE = 172.0482
ARG_OF_PERICENTER = 89.8770
MEAN_ANOMALY   = 270.3106

EPHEMERIS_TYPE = 0
CLASSIFICATION_TYPE = U
NORAD_CAT_ID   = 67688
ELEMENT_SET_NO = 999
REV_AT_EPOCH   = 157
BSTAR          = .84802E-3
MEAN_MOTION_DOT = .49101E-3
MEAN_MOTION_DDOT = 0

